<?xml version="1.0" encoding="UTF-8"?>
<ndm xmlns:xsi="http://www.w3.org/2001/XMLSchema-instance" xsi:noNamespaceSchemaLocation="https://sanaregistry.org/r/ndmxml_unqualified/ndmxml-2.0.0-master-2.0.xsd">
<omm id="CCSDS_OMM_VERS" version="2.0">
<header><CREATION_DATE/><ORIGINATOR/></header><body><segment><metadata><OBJECT_NAME>IRIDIUM 921</OBJECT_NAME><OBJECT_ID>1997-034E</OBJECT_ID><CENTER_NAME>EARTH</CENTER_NAME><REF_FRAME>TEME</REF_FRAME><TIME_SYSTEM>UTC</TIME_SYSTEM><MEAN_ELEMENT_THEORY>SGP4</MEAN_ELEMENT_THEORY></metadata><data><meanElements><EPOCH>2024-10-20T16:28:19.610112</EPOCH><MEAN_MOTION>15.54823144</MEAN_MOTION><ECCENTRICITY>.0009553</ECCENTRICITY><INCLINATION>86.3772</INCLINATION><RA_OF_ASC_NODE>225.3664</RA_OF_ASC_NODE><ARG_OF_PERICENTER>97.1944</ARG_OF_PERICENTER><MEAN_ANOMALY>263.0404</MEAN_ANOMALY></meanElements><tleParameters><EPHEMERIS_TYPE>0</EPHEMERIS_TYPE><CLASSIFICATION_TYPE>U</CLASSIFICATION_TYPE><NORAD_CAT_ID>24873</NORAD_CAT_ID><ELEMENT_SET_NO>999</ELEMENT_SET_NO><REV_AT_EPOCH>49484</REV_AT_EPOCH><BSTAR>.28248E-2</BSTAR><MEAN_MOTION_DOT>.192523E-2</MEAN_MOTION_DOT><MEAN_MOTION_DDOT>0</MEAN_MOTION_DDOT></tleParameters></data></segment></body></omm>
<omm id="CCSDS_OMM_VERS" version="2.0">
<header><CREATION_DATE/><ORIGINATOR/></header><body><segment><metadata><OBJECT_NAME>IRIDIUM 26</OBJECT_NAME><OBJECT_ID>1997-043A</OBJECT_ID><CENTER_NAME>EARTH</CENTER_NAME><REF_FRAME>TEME</REF_FRAME><TIME_SYSTEM>UTC</TIME_SYSTEM><MEAN_ELEMENT_THEORY>SGP4</MEAN_ELEMENT_THEORY></metadata><data><meanElements><EPOCH>2024-10-20T18:44:01.357728</EPOCH><MEAN_MOTION>14.36712800</MEAN_MOTION><ECCENTRICITY>.0002355</ECCENTRICITY><INCLINATION>86.4017</INCLINATION><RA_OF_ASC_NODE>211.0555</RA_OF_ASC_NODE><ARG_OF_PERICENTER>88.0431</ARG_OF_PERICENTER><MEAN_ANOMALY>272.1036</MEAN_ANOMALY></meanElements><tleParameters><EPHEMERIS_TYPE>0</EPHEMERIS_TYPE><CLASSIFICATION_TYPE>U</CLASSIFICATION_TYPE><NORAD_CAT_ID>24903</NORAD_CAT_ID><ELEMENT_SET_NO>999</ELEMENT_SET_NO><REV_AT_EPOCH>42283</REV_AT_EPOCH><BSTAR>.58156E-3</BSTAR><MEAN_MOTION_DOT>.1732E-4</MEAN_MOTION_DOT><MEAN_MOTION_DDOT>0</MEAN_MOTION_DDOT></tleParameters></data></segment></body></omm>
<omm id="CCSDS_OMM_VERS" version="2.0">
<header><CREATION_DATE/><ORIGINATOR/></header><body><segment><metadata><OBJECT_NAME>IRIDIUM 22</OBJECT_NAME><OBJECT_ID>1997-043E</OBJECT_ID><CENTER_NAME>EARTH</CENTER_NAME><REF_FRAME>TEME</REF_FRAME><TIME_SYSTEM>UTC</TIME_SYSTEM><MEAN_ELEMENT_THEORY>SGP4</MEAN_ELEMENT_THEORY></metadata><data><meanElements><EPOCH>2024-10-20T17:24:05.868288</EPOCH><MEAN_MOTION>14.35573302</MEAN_MOTION><ECCENTRICITY>.0002336</ECCENTRICITY><INCLINATION>86.4016</INCLINATION><RA_OF_ASC_NODE>214.4113</RA_OF_ASC_NODE><ARG_OF_PERICENTER>82.1954</ARG_OF_PERICENTER><MEAN_ANOMALY>277.9508</MEAN_ANOMALY></meanElements><tleParameters><EPHEMERIS_TYPE>0</EPHEMERIS_TYPE><CLASSIFICATION_TYPE>U</CLASSIFICATION_TYPE><NORAD_CAT_ID>24907</NORAD_CAT_ID><ELEMENT_SET_NO>999</ELEMENT_SET_NO><REV_AT_EPOCH>42240</REV_AT_EPOCH><BSTAR>.54873E-3</BSTAR><MEAN_MOTION_DOT>.1599E-4</MEAN_MOTION_DOT><MEAN_MOTION_DDOT>0</MEAN_MOTION_DDOT></tleParameters></data></segment></body></omm>
<omm id="CCSDS_OMM_VERS" version="2.0">
<header><CREATION_DATE/><ORIGINATOR/></header><body><segment><metadata><OBJECT_NAME>DUMMY MASS 1</OBJECT_NAME><OBJECT_ID>1997-048A</OBJECT_ID><CENTER_NAME>EARTH</CENTER_NAME><REF_FRAME>TEME</REF_FRAME><TIME_SYSTEM>UTC</TIME_SYSTEM><MEAN_ELEMENT_THEORY>SGP4</MEAN_ELEMENT_THEORY></metadata><data><meanElements><EPOCH>2024-10-20T09:55:49.974240</EPOCH><MEAN_MOTION>14.86528763</MEAN_MOTION><ECCENTRICITY>.0004226</ECCENTRICITY><INCLINATION>86.3335</INCLINATION><RA_OF_ASC_NODE>246.0870</RA_OF_ASC_NODE><ARG_OF_PERICENTER>281.7871</ARG_OF_PERICENTER><MEAN_ANOMALY>78.2879</MEAN_ANOMALY></meanElements><tleParameters><EPHEMERIS_TYPE>0</EPHEMERIS_TYPE><CLASSIFICATION_TYPE>U</CLASSIFICATION_TYPE><NORAD_CAT_ID>24925</NORAD_CAT_ID><ELEMENT_SET_NO>999</ELEMENT_SET_NO><REV_AT_EPOCH>46950</REV_AT_EPOCH><BSTAR>.19047E-3</BSTAR><MEAN_MOTION_DOT>.1712E-4</MEAN_MOTION_DOT><MEAN_MOTION_DDOT>0</MEAN_MOTION_DDOT></tleParameters></data></segment></body></omm>
<omm id="CCSDS_OMM_VERS" version="2.0">
<header><CREATION_DATE/><ORIGINATOR/></header><body><segment><metadata><OBJECT_NAME>DUMMY MASS 2</OBJECT_NAME><OBJECT_ID>1997-048B</OBJECT_ID><CENTER_NAME>EARTH</CENTER_NAME><REF_FRAME>TEME</REF_FRAME><TIME_SYSTEM>UTC</TIME_SYSTEM><MEAN_ELEMENT_THEORY>SGP4</MEAN_ELEMENT_THEORY></metadata><data><meanElements><EPOCH>2024-10-20T11:18:01.268064</EPOCH><MEAN_MOTION>14.86283995</MEAN_MOTION><ECCENTRICITY>.0005184</ECCENTRICITY><INCLINATION>86.3333</INCLINATION><RA_OF_ASC_NODE>247.6255</RA_OF_ASC_NODE><ARG_OF_PERICENTER>297.4973</ARG_OF_PERICENTER><MEAN_ANOMALY>62.5724</MEAN_ANOMALY></meanElements><tleParameters><EPHEMERIS_TYPE>0</EPHEMERIS_TYPE><CLASSIFICATION_TYPE>U</CLASSIFICATION_TYPE><NORAD_CAT_ID>24926</NORAD_CAT_ID><ELEMENT_SET_NO>999</ELEMENT_SET_NO><REV_AT_EPOCH>46929</REV_AT_EPOCH><BSTAR>.19412E-3</BSTAR><MEAN_MOTION_DOT>.1735E-4</MEAN_MOTION_DOT><MEAN_MOTION_DDOT>0</MEAN_MOTION_DDOT></tleParameters></data></segment></body></omm>
<omm id="CCSDS_OMM_VERS" version="2.0">
<header><CREATION_DATE/><ORIGINATOR/></header><body><segment><metadata><OBJECT_NAME>IRIDIUM 29</OBJECT_NAME><OBJECT_ID>1997-051A</OBJECT_ID><CENTER_NAME>EARTH</CENTER_NAME><REF_FRAME>TEME</REF_FRAME><TIME_SYSTEM>UTC</TIME_SYSTEM><MEAN_ELEMENT_THEORY>SGP4</MEAN_ELEMENT_THEORY></metadata><data><meanElements><EPOCH>2024-10-20T09:50:21.683616</EPOCH><MEAN_MOTION>14.36021770</MEAN_MOTION><ECCENTRICITY>.0002282</ECCENTRICITY><INCLINATION>86.3948</INCLINATION><RA_OF_ASC_NODE>244.3685</RA_OF_ASC_NODE><ARG_OF_PERICENTER>80.3379</ARG_OF_PERICENTER><MEAN_ANOMALY>279.8076</MEAN_ANOMALY></meanElements><tleParameters><EPHEMERIS_TYPE>0</EPHEMERIS_TYPE><CLASSIFICATION_TYPE>U</CLASSIFICATION_TYPE><NORAD_CAT_ID>24944</NORAD_CAT_ID><ELEMENT_SET_NO>999</ELEMENT_SET_NO><REV_AT_EPOCH>41885</REV_AT_EPOCH><BSTAR>.60151E-3</BSTAR><MEAN_MOTION_DOT>.1767E-4</MEAN_MOTION_DOT><MEAN_MOTION_DDOT>0</MEAN_MOTION_DDOT></tleParameters></data></segment></body></omm>
<omm id="CCSDS_OMM_VERS" version="2.0">
<header><CREATION_DATE/><ORIGINATOR/></header><body><segment><metadata><OBJECT_NAME>IRIDIUM 33</OBJECT_NAME><OBJECT_ID>1997-051C</OBJECT_ID><CENTER_NAME>EARTH</CENTER_NAME><REF_FRAME>TEME</REF_FRAME><TIME_SYSTEM>UTC</TIME_SYSTEM><MEAN_ELEMENT_THEORY>SGP4</MEAN_ELEMENT_THEORY></metadata><data><meanElements><EPOCH>2024-10-20T10:01:29.753472</EPOCH><MEAN_MOTION>14.34585046</MEAN_MOTION><ECCENTRICITY>.0009431</ECCENTRICITY><INCLINATION>86.3864</INCLINATION><RA_OF_ASC_NODE>243.6118</RA_OF_ASC_NODE><ARG_OF_PERICENTER>129.2381</ARG_OF_PERICENTER><MEAN_ANOMALY>230.9654</MEAN_ANOMALY></meanElements><tleParameters><EPHEMERIS_TYPE>0</EPHEMERIS_TYPE><CLASSIFICATION_TYPE>U</CLASSIFICATION_TYPE><NORAD_CAT_ID>24946</NORAD_CAT_ID><ELEMENT_SET_NO>999</ELEMENT_SET_NO><REV_AT_EPOCH>41836</REV_AT_EPOCH><BSTAR>.44359E-3</BSTAR><MEAN_MOTION_DOT>.1272E-4</MEAN_MOTION_DOT><MEAN_MOTION_DDOT>0</MEAN_MOTION_DDOT></tleParameters></data></segment></body></omm>
<omm id="CCSDS_OMM_VERS" version="2.0">
<header><CREATION_DATE/><ORIGINATOR/></header><body><segment><metadata><OBJECT_NAME>IRIDIUM 28</OBJECT_NAME><OBJECT_ID>1997-051E</OBJECT_ID><CENTER_NAME>EARTH</CENTER_NAME><REF_FRAME>TEME</REF_FRAME><TIME_SYSTEM>UTC</TIME_SYSTEM><MEAN_ELEMENT_THEORY>SGP4</MEAN_ELEMENT_THEORY></metadata><data><meanElements><EPOCH>2024-10-20T09:36:38.696832</EPOCH><MEAN_MOTION>14.36969097</MEAN_MOTION><ECCENTRICITY>.0002626</ECCENTRICITY><INCLINATION>86.3959</INCLINATION><RA_OF_ASC_NODE>242.0237</RA_OF_ASC_NODE><ARG_OF_PERICENTER>94.0032</ARG_OF_PERICENTER><MEAN_ANOMALY>266.1465</MEAN_ANOMALY></meanElements><tleParameters><EPHEMERIS_TYPE>0</EPHEMERIS_TYPE><CLASSIFICATION_TYPE>U</CLASSIFICATION_TYPE><NORAD_CAT_ID>24948</NORAD_CAT_ID><ELEMENT_SET_NO>999</ELEMENT_SET_NO><REV_AT_EPOCH>41940</REV_AT_EPOCH><BSTAR>.5548E-3</BSTAR><MEAN_MOTION_DOT>.1662E-4</MEAN_MOTION_DOT><MEAN_MOTION_DDOT>0</MEAN_MOTION_DDOT></tleParameters></data></segment></body></omm>

</ndm>
