IRIDIUM 921             
1 24873U 97034E   24294.68633808  .00192523  00000+0  28248-2 0  9997
2 24873  86.3772 225.3664 0009553  97.1944 263.0404 15.54823144494848
IRIDIUM 26              
1 24903U 97043A   24294.78057127  .00001732  00000+0  58156-3 0  9999
2 24903  86.4017 211.0555 0002355  88.0431 272.1036 14.36712800422836
IRIDIUM 22              
1 24907U 97043E   24294.72506792  .00001599  00000+0  54873-3 0  9997
2 24907  86.4016 214.4113 0002336  82.1954 277.9508 14.35573302422401
DUMMY MASS 1            
1 24925U 97048A   24294.41377285  .00001712  00000+0  19047-3 0  9992
2 24925  86.3335 246.0870 0004226 281.7871  78.2879 14.86528763469502
DUMMY MASS 2            
1 24926U 97048B   24294.47084801  .00001735  00000+0  19412-3 0  9999
2 24926  86.3333 247.6255 0005184 297.4973  62.5724 14.86283995469292
IRIDIUM 29              
1 24944U 97051A   24294.40997319  .00001767  00000+0  60151-3 0  9994
2 24944  86.3948 244.3685 0002282  80.3379 279.8076 14.36021770418855
IRIDIUM 33              
1 24946U 97051C   24294.41770548  .00001272  00000+0  44359-3 0  9993
2 24946  86.3864 243.6118 0009431 129.2381 230.9654 14.34585046418361
IRIDIUM 28              
1 24948U 97051E   24294.40044788  .00001662  00000+0  55480-3 0  9994
2 24948  86.3959 242.0237 0002626  94.0032 266.1465 14.36969097419405
